{"fetched_at":"2026-07-17T06:38:18.454Z","source":"https://celestrak.org/NORAD/elements/gp.php?NAME=HULIANWANG&FORMAT=JSON","constellation":"guowang","records":[{"OBJECT_NAME":"HULIANWANG DIGUI-92","OBJECT_ID":"2025-231F","EPOCH":"2026-07-16T09:02:08.413728","CLASSIFICATION_TYPE":"U","MEAN_MOTION":13.29329054,"ECCENTRICITY":0.00005398,"INCLINATION":50.006,"RA_OF_ASC_NODE":70.9662,"ARG_OF_PERICENTER":345.3588,"MEAN_ANOMALY":14.7268,"EPHEMERIS_TYPE":0,"NORAD_CAT_ID":66000,"ELEMENT_SET_NO":999,"REV_AT_EPOCH":3677,"BSTAR":0.000063912951,"MEAN_MOTION_DOT":-9.4e-7,"MEAN_MOTION_DDOT":0},{"OBJECT_NAME":"HULIANWANG DIGUI-93","OBJECT_ID":"2025-231G","EPOCH":"2026-07-16T15:51:04.108608","CLASSIFICATION_TYPE":"U","MEAN_MOTION":13.29328085,"ECCENTRICITY":0.0000516,"INCLINATION":50.0026,"RA_OF_ASC_NODE":69.735,"ARG_OF_PERICENTER":341.6829,"MEAN_ANOMALY":18.4024,"EPHEMERIS_TYPE":0,"NORAD_CAT_ID":66001,"ELEMENT_SET_NO":999,"REV_AT_EPOCH":3681,"BSTAR":0.000051704,"MEAN_MOTION_DOT":-0.000001,"MEAN_MOTION_DDOT":0},{"OBJECT_NAME":"HULIANWANG DIGUI-94","OBJECT_ID":"2025-231H","EPOCH":"2026-07-16T01:37:15.370464","CLASSIFICATION_TYPE":"U","MEAN_MOTION":13.29326046,"ECCENTRICITY":0.00005462,"INCLINATION":50.0066,"RA_OF_ASC_NODE":72.0192,"ARG_OF_PERICENTER":341.6776,"MEAN_ANOMALY":18.4076,"EPHEMERIS_TYPE":0,"NORAD_CAT_ID":66002,"ELEMENT_SET_NO":999,"REV_AT_EPOCH":3673,"BSTAR":0.000059989454,"MEAN_MOTION_DOT":-9.6e-7,"MEAN_MOTION_DDOT":0},{"OBJECT_NAME":"HULIANWANG DIGUI-95","OBJECT_ID":"2025-231J","EPOCH":"2026-07-16T01:13:02.215776","CLASSIFICATION_TYPE":"U","MEAN_MOTION":13.29332497,"ECCENTRICITY":0.00005174,"INCLINATION":50.004,"RA_OF_ASC_NODE":71.8746,"ARG_OF_PERICENTER":345.7823,"MEAN_ANOMALY":14.3034,"EPHEMERIS_TYPE":0,"NORAD_CAT_ID":66003,"ELEMENT_SET_NO":999,"REV_AT_EPOCH":3673,"BSTAR":0.000055313777,"MEAN_MOTION_DOT":-9.8e-7,"MEAN_MOTION_DDOT":0},{"OBJECT_NAME":"HULIANWANG DIGUI-96","OBJECT_ID":"2025-258A","EPOCH":"2026-07-16T09:00:12.477024","CLASSIFICATION_TYPE":"U","MEAN_MOTION":13.29327298,"ECCENTRICITY":0.0000881,"INCLINATION":50.0022,"RA_OF_ASC_NODE":190.9547,"ARG_OF_PERICENTER":252.8624,"MEAN_ANOMALY":107.2151,"EPHEMERIS_TYPE":0,"NORAD_CAT_ID":66412,"ELEMENT_SET_NO":999,"REV_AT_EPOCH":3361,"BSTAR":-4.8867e-7,"MEAN_MOTION_DOT":-0.00000124,"MEAN_MOTION_DDOT":0},{"OBJECT_NAME":"HULIANWANG DIGUI-97","OBJECT_ID":"2025-258B","EPOCH":"2026-07-16T09:48:15.632064","CLASSIFICATION_TYPE":"U","MEAN_MOTION":13.29326797,"ECCENTRICITY":0.0001003,"INCLINATION":49.9985,"RA_OF_ASC_NODE":191.0592,"ARG_OF_PERICENTER":254.0924,"MEAN_ANOMALY":105.9838,"EPHEMERIS_TYPE":0,"NORAD_CAT_ID":66413,"ELEMENT_SET_NO":999,"REV_AT_EPOCH":3361,"BSTAR":0.000016234,"MEAN_MOTION_DOT":-0.00000116,"MEAN_MOTION_DDOT":0},{"OBJECT_NAME":"HULIANWANG DIGUI-98","OBJECT_ID":"2025-258C","EPOCH":"2026-07-16T09:36:26.705376","CLASSIFICATION_TYPE":"U","MEAN_MOTION":13.29323337,"ECCENTRICITY":0.0001093,"INCLINATION":50.0022,"RA_OF_ASC_NODE":191.0948,"ARG_OF_PERICENTER":249.2589,"MEAN_ANOMALY":110.8166,"EPHEMERIS_TYPE":0,"NORAD_CAT_ID":66414,"ELEMENT_SET_NO":999,"REV_AT_EPOCH":3361,"BSTAR":0.000022749,"MEAN_MOTION_DOT":-0.00000113,"MEAN_MOTION_DDOT":0},{"OBJECT_NAME":"HULIANWANG DIGUI-99","OBJECT_ID":"2025-258D","EPOCH":"2026-07-16T10:36:28.840608","CLASSIFICATION_TYPE":"U","MEAN_MOTION":13.29326528,"ECCENTRICITY":0.0000984,"INCLINATION":50.0022,"RA_OF_ASC_NODE":190.644,"ARG_OF_PERICENTER":256.1258,"MEAN_ANOMALY":103.9505,"EPHEMERIS_TYPE":0,"NORAD_CAT_ID":66415,"ELEMENT_SET_NO":999,"REV_AT_EPOCH":3361,"BSTAR":8.6802e-7,"MEAN_MOTION_DOT":-0.00000124,"MEAN_MOTION_DDOT":0},{"OBJECT_NAME":"HULIANWANG DIGUI-100","OBJECT_ID":"2025-258E","EPOCH":"2026-07-16T05:47:53.134080","CLASSIFICATION_TYPE":"U","MEAN_MOTION":13.2932336,"ECCENTRICITY":0.0000981,"INCLINATION":50.0025,"RA_OF_ASC_NODE":191.5953,"ARG_OF_PERICENTER":260.9899,"MEAN_ANOMALY":99.0862,"EPHEMERIS_TYPE":0,"NORAD_CAT_ID":66416,"ELEMENT_SET_NO":999,"REV_AT_EPOCH":3360,"BSTAR":0.000016708,"MEAN_MOTION_DOT":-0.00000116,"MEAN_MOTION_DDOT":0},{"OBJECT_NAME":"HULIANWANG DIGUI-101","OBJECT_ID":"2025-258F","EPOCH":"2026-07-16T05:35:35.424096","CLASSIFICATION_TYPE":"U","MEAN_MOTION":13.29327206,"ECCENTRICITY":0.0000832,"INCLINATION":49.9974,"RA_OF_ASC_NODE":191.4429,"ARG_OF_PERICENTER":255.7073,"MEAN_ANOMALY":104.3707,"EPHEMERIS_TYPE":0,"NORAD_CAT_ID":66417,"ELEMENT_SET_NO":999,"REV_AT_EPOCH":3360,"BSTAR":3.8696e-7,"MEAN_MOTION_DOT":-0.00000124,"MEAN_MOTION_DDOT":0},{"OBJECT_NAME":"HULIANWANG DIGUI-102","OBJECT_ID":"2025-258G","EPOCH":"2026-07-16T10:24:28.804608","CLASSIFICATION_TYPE":"U","MEAN_MOTION":13.29323202,"ECCENTRICITY":0.0000872,"INCLINATION":49.999,"RA_OF_ASC_NODE":190.5289,"ARG_OF_PERICENTER":254.3477,"MEAN_ANOMALY":105.7298,"EPHEMERIS_TYPE":0,"NORAD_CAT_ID":66418,"ELEMENT_SET_NO":999,"REV_AT_EPOCH":3362,"BSTAR":0.000013199,"MEAN_MOTION_DOT":-0.00000118,"MEAN_MOTION_DDOT":0},{"OBJECT_NAME":"HULIANWANG DIGUI-103","OBJECT_ID":"2025-258H","EPOCH":"2026-07-16T10:12:15.844032","CLASSIFICATION_TYPE":"U","MEAN_MOTION":13.29326313,"ECCENTRICITY":0.0000969,"INCLINATION":49.9983,"RA_OF_ASC_NODE":190.4701,"ARG_OF_PERICENTER":264.8413,"MEAN_ANOMALY":95.2348,"EPHEMERIS_TYPE":0,"NORAD_CAT_ID":66419,"ELEMENT_SET_NO":999,"REV_AT_EPOCH":3362,"BSTAR":0.000021653,"MEAN_MOTION_DOT":-0.00000114,"MEAN_MOTION_DDOT":0},{"OBJECT_NAME":"HULIANWANG DIGUI-104","OBJECT_ID":"2025-258J","EPOCH":"2026-07-16T10:00:17.753760","CLASSIFICATION_TYPE":"U","MEAN_MOTION":13.29326349,"ECCENTRICITY":0.000093,"INCLINATION":50,"RA_OF_ASC_NODE":190.4664,"ARG_OF_PERICENTER":253.2034,"MEAN_ANOMALY":106.8736,"EPHEMERIS_TYPE":0,"NORAD_CAT_ID":66420,"ELEMENT_SET_NO":999,"REV_AT_EPOCH":3361,"BSTAR":0.000012146,"MEAN_MOTION_DOT":-0.00000118,"MEAN_MOTION_DDOT":0},{"OBJECT_NAME":"HULIANWANG DIGUI-105","OBJECT_ID":"2025-285A","EPOCH":"2026-07-15T21:28:21.743040","CLASSIFICATION_TYPE":"U","MEAN_MOTION":13.29322637,"ECCENTRICITY":0.0000961,"INCLINATION":50.0058,"RA_OF_ASC_NODE":43.263,"ARG_OF_PERICENTER":36.9613,"MEAN_ANOMALY":323.1326,"EPHEMERIS_TYPE":0,"NORAD_CAT_ID":66915,"ELEMENT_SET_NO":999,"REV_AT_EPOCH":2987,"BSTAR":0.000016369,"MEAN_MOTION_DOT":-0.00000116,"MEAN_MOTION_DDOT":0},{"OBJECT_NAME":"HULIANWANG DIGUI-106","OBJECT_ID":"2025-285B","EPOCH":"2026-07-15T23:04:31.624032","CLASSIFICATION_TYPE":"U","MEAN_MOTION":13.29323079,"ECCENTRICITY":0.00009882,"INCLINATION":50.007,"RA_OF_ASC_NODE":42.9702,"ARG_OF_PERICENTER":35.4727,"MEAN_ANOMALY":324.6211,"EPHEMERIS_TYPE":0,"NORAD_CAT_ID":66916,"ELEMENT_SET_NO":999,"REV_AT_EPOCH":2988,"BSTAR":0.000043798891,"MEAN_MOTION_DOT":-0.00000104,"MEAN_MOTION_DDOT":0},{"OBJECT_NAME":"HULIANWANG DIGUI-107","OBJECT_ID":"2025-285C","EPOCH":"2026-07-15T22:52:17.910912","CLASSIFICATION_TYPE":"U","MEAN_MOTION":13.29325968,"ECCENTRICITY":0.00009743,"INCLINATION":50.0035,"RA_OF_ASC_NODE":42.864,"ARG_OF_PERICENTER":40.1176,"MEAN_ANOMALY":319.9768,"EPHEMERIS_TYPE":0,"NORAD_CAT_ID":66917,"ELEMENT_SET_NO":999,"REV_AT_EPOCH":2988,"BSTAR":0.000037546937,"MEAN_MOTION_DOT":-0.00000107,"MEAN_MOTION_DDOT":0}]}
