HULIANWANG DIGUI-92     
1 66000U 25231F   26197.37648627 -.00000094  00000+0  63913-4 0  9992
2 66000  50.0060  70.9662 0000539 345.3588  14.7268 13.29329054 36777
HULIANWANG DIGUI-93     
1 66001U 25231G   26197.66046422 -.00000100  00000+0  51704-4 0  9993
2 66001  50.0026  69.7350 0000516 341.6829  18.4024 13.29328085 36811
HULIANWANG DIGUI-94     
1 66002U 25231H   26197.06753901 -.00000096  00000+0  59989-4 0  9992
2 66002  50.0066  72.0192 0000546 341.6776  18.4076 13.29326046 36734
HULIANWANG DIGUI-95     
1 66003U 25231J   26197.05072009 -.00000098  00000+0  55314-4 0  9995
2 66003  50.0040  71.8746 0000517 345.7823  14.3034 13.29332497 36731
HULIANWANG DIGUI-96     
1 66412U 25258A   26197.37514441 -.00000124  00000+0 -48867-6 0  9992
2 66412  50.0022 190.9547 0000881 252.8624 107.2151 13.29327298 33617
HULIANWANG DIGUI-97     
1 66413U 25258B   26197.40851426 -.00000116  00000+0  16234-4 0  9995
2 66413  49.9985 191.0592 0001003 254.0924 105.9838 13.29326797 33619
HULIANWANG DIGUI-98     
1 66414U 25258C   26197.40030909 -.00000113  00000+0  22749-4 0  9996
2 66414  50.0022 191.0948 0001093 249.2589 110.8166 13.29323337 33618
HULIANWANG DIGUI-99     
1 66415U 25258D   26197.44200047 -.00000124  00000+0  86802-6 0  9997
2 66415  50.0022 190.6440 0000984 256.1258 103.9505 13.29326528 33614
HULIANWANG DIGUI-100    
1 66416U 25258E   26197.24158720 -.00000116  00000+0  16708-4 0  9993
2 66416  50.0025 191.5953 0000981 260.9899  99.0862 13.29323360 33609
HULIANWANG DIGUI-101    
1 66417U 25258F   26197.23304889 -.00000124  00000+0  38696-6 0  9993
2 66417  49.9974 191.4429 0000832 255.7073 104.3707 13.29327206 33609
HULIANWANG DIGUI-102    
1 66418U 25258G   26197.43366672 -.00000118  00000+0  13199-4 0  9996
2 66418  49.9990 190.5289 0000872 254.3477 105.7298 13.29323202 33623
HULIANWANG DIGUI-103    
1 66419U 25258H   26197.42518338 -.00000114  00000+0  21653-4 0  9994
2 66419  49.9983 190.4701 0000969 264.8413  95.2348 13.29326313 33622
HULIANWANG DIGUI-104    
1 66420U 25258J   26197.41687215 -.00000118  00000+0  12146-4 0  9997
2 66420  50.0000 190.4664 0000930 253.2034 106.8736 13.29326349 33612
HULIANWANG DIGUI-105    
1 66915U 25285A   26196.89469610 -.00000116  00000+0  16369-4 0  9993
2 66915  50.0058  43.2630 0000961  36.9613 323.1326 13.29322637 29873
HULIANWANG DIGUI-106    
1 66916U 25285B   26196.96147713 -.00000104  00000+0  43799-4 0  9993
2 66916  50.0070  42.9702 0000988  35.4727 324.6211 13.29323079 29884
HULIANWANG DIGUI-107    
1 66917U 25285C   26196.95298508 -.00000107  00000+0  37547-4 0  9999
2 66917  50.0035  42.8640 0000974  40.1176 319.9768 13.29325968 29885
